{
    "links": {
        "self": "http://www.neowsapp.com/rest/v1/neo/3819568?api_key=iIulBulltgU6a56xZRHN4H3l9WmuAYTsLGpBGhQ2"
    },
    "id": "3819568",
    "neo_reference_id": "3819568",
    "name": "(2018 HD2)",
    "designation": "2018 HD2",
    "nasa_jpl_url": "http://ssd.jpl.nasa.gov/sbdb.cgi?sstr=3819568",
    "absolute_magnitude_h": 24.5,
    "estimated_diameter": {
        "kilometers": {
            "estimated_diameter_min": 0.0334622374,
            "estimated_diameter_max": 0.0748238376
        },
        "meters": {
            "estimated_diameter_min": 33.4622374455,
            "estimated_diameter_max": 74.8238376074
        },
        "miles": {
            "estimated_diameter_min": 0.0207924639,
            "estimated_diameter_max": 0.0464933628
        },
        "feet": {
            "estimated_diameter_min": 109.7842471007,
            "estimated_diameter_max": 245.4850393757
        }
    },
    "is_potentially_hazardous_asteroid": false,
    "close_approach_data": [
        {
            "close_approach_date": "2018-04-26",
            "close_approach_date_full": "2018-Apr-26 22:19",
            "epoch_date_close_approach": 1524781140000,
            "relative_velocity": {
                "kilometers_per_second": "13.7514468883",
                "kilometers_per_hour": "49505.2087980244",
                "miles_per_hour": "30760.611544528"
            },
            "miss_distance": {
                "astronomical": "0.1339119241",
                "lunar": "52.0917384749",
                "kilometers": "20032938.612961667",
                "miles": "12447890.8377263246"
            },
            "orbiting_body": "Earth"
        }
    ],
    "orbital_data": {
        "orbit_id": "2",
        "orbit_determination_date": "2018-05-14 06:26:10",
        "first_observation_date": "2018-04-23",
        "last_observation_date": "2018-05-12",
        "data_arc_in_days": 19,
        "observations_used": 34,
        "orbit_uncertainty": "9",
        "minimum_orbit_intersection": ".133876",
        "jupiter_tisserand_invariant": "4.864",
        "epoch_osculation": "2458233.5",
        "eccentricity": ".1290807921501634",
        "semi_major_axis": "1.308587382461271",
        "inclination": "26.8545208498767",
        "ascending_node_longitude": "36.23706122486376",
        "orbital_period": "546.7672828078335",
        "perihelion_distance": "1.139673886535461",
        "perihelion_argument": "174.7469736786218",
        "aphelion_distance": "1.47750087838708",
        "perihelion_time": "2458229.078193677184",
        "mean_anomaly": "2.911385385093042",
        "mean_motion": ".6584154014323593",
        "equinox": "J2000",
        "orbit_class": {
            "orbit_class_type": "AMO",
            "orbit_class_description": "Near-Earth asteroid orbits similar to that of 1221 Amor",
            "orbit_class_range": "1.017 AU < q (perihelion) < 1.3 AU"
        }
    },
    "is_sentry_object": false
}